JILIN-1 GAOFEN 3A       
1 44312U 19032C   26068.74542089  .00016264  00000+0  55381-3 0  9993
2 44312  44.9746 183.2861 0002618 111.2900 248.8263 15.30271310372592
STARLINK-2647           
1 48658U 21044W   26068.40686488 -.00000428  00000+0 -23154-5 0  9993
2 48658  53.1613 115.1599 0001392  82.0945 278.0214 15.30203057263782
